[{"OBJECT_NAME":"STARLINK-2521","OBJECT_ID":"2021-044L","EPOCH":"2026-03-09T12:11:30.980544","MEAN_MOTION":15.30195906,"ECCENTRICITY":0.00012672,"INCLINATION":53.1608,"RA_OF_ASC_NODE":114.7009,"ARG_OF_PERICENTER":91.586,"MEAN_ANOMALY":268.5286,"EPHEMERIS_TYPE":0,"CLASSIFICATION_TYPE":"U","NORAD_CAT_ID":48648,"ELEMENT_SET_NO":999,"REV_AT_EPOCH":26380,"BSTAR":2.6206278e-5,"MEAN_MOTION_DOT":4.17e-6,"MEAN_MOTION_DDOT":0},{"OBJECT_NAME":"CZ-6A DEB","OBJECT_ID":"2022-151DE","EPOCH":"2026-03-09T09:45:43.657920","MEAN_MOTION":15.34292219,"ECCENTRICITY":0.00393756,"INCLINATION":99.0022,"RA_OF_ASC_NODE":218.5596,"ARG_OF_PERICENTER":192.6197,"MEAN_ANOMALY":167.4059,"EPHEMERIS_TYPE":0,"CLASSIFICATION_TYPE":"U","NORAD_CAT_ID":54359,"ELEMENT_SET_NO":999,"REV_AT_EPOCH":10560,"BSTAR":0.0065240017,"MEAN_MOTION_DOT":0.00228186,"MEAN_MOTION_DDOT":0}]
